CCSDS_OMM_VERS = 2.0
CREATION_DATE  = 
ORIGINATOR     = 

OBJECT_NAME    = GSLV R/B
OBJECT_ID      = 2022-138AN
CENTER_NAME    = EARTH
REF_FRAME      = TEME
TIME_SYSTEM    = UTC
MEAN_ELEMENT_THEORY = SGP/SGP4

EPOCH          = 2026-03-04T07:19:49.734336
MEAN_MOTION    = 14.96730402
ECCENTRICITY   = .00222219
INCLINATION    = 87.3887
RA_OF_ASC_NODE = 168.1641
ARG_OF_PERICENTER = 165.3258
MEAN_ANOMALY   = 194.8623

EPHEMERIS_TYPE = 0
CLASSIFICATION_TYPE = U
NORAD_CAT_ID   = 54149
ELEMENT_SET_NO = 999
REV_AT_EPOCH   = 18312
BSTAR          = .48444434E-3
MEAN_MOTION_DOT = .5589E-4
MEAN_MOTION_DDOT = 0

CCSDS_OMM_VERS = 2.0
CREATION_DATE  = 
ORIGINATOR     = 

OBJECT_NAME    = XRISM
OBJECT_ID      = 2023-137A
CENTER_NAME    = EARTH
REF_FRAME      = TEME
TIME_SYSTEM    = UTC
MEAN_ELEMENT_THEORY = SGP/SGP4

EPOCH          = 2026-03-05T02:00:54.048960
MEAN_MOTION    = 15.11436955
ECCENTRICITY   = .0008123
INCLINATION    = 31.0029
RA_OF_ASC_NODE = 313.4527
ARG_OF_PERICENTER = 351.8434
MEAN_ANOMALY   = 8.2072

EPHEMERIS_TYPE = 0
CLASSIFICATION_TYPE = U
NORAD_CAT_ID   = 57800
ELEMENT_SET_NO = 999
REV_AT_EPOCH   = 13709
BSTAR          = .40306E-3
MEAN_MOTION_DOT = .7086E-4
MEAN_MOTION_DDOT = 0

CCSDS_OMM_VERS = 2.0
CREATION_DATE  = 
ORIGINATOR     = 

OBJECT_NAME    = ACS3
OBJECT_ID      = 2024-077B
CENTER_NAME    = EARTH
REF_FRAME      = TEME
TIME_SYSTEM    = UTC
MEAN_ELEMENT_THEORY = SGP/SGP4

EPOCH          = 2026-03-05T02:31:43.910112
MEAN_MOTION    = 13.89355720
ECCENTRICITY   = .005615
INCLINATION    = 97.2105
RA_OF_ASC_NODE = 6.2485
ARG_OF_PERICENTER = 88.8212
MEAN_ANOMALY   = 271.9383

EPHEMERIS_TYPE = 0
CLASSIFICATION_TYPE = U
NORAD_CAT_ID   = 59588
ELEMENT_SET_NO = 999
REV_AT_EPOCH   = 9356
BSTAR          = .17541E-1
MEAN_MOTION_DOT = .21684E-3
MEAN_MOTION_DDOT = 0

CCSDS_OMM_VERS = 2.0
CREATION_DATE  = 
ORIGINATOR     = 

OBJECT_NAME    = SZ-21 MODULE
OBJECT_ID      = 2025-246C
CENTER_NAME    = EARTH
REF_FRAME      = TEME
TIME_SYSTEM    = UTC
MEAN_ELEMENT_THEORY = SGP/SGP4

EPOCH          = 2026-03-05T04:05:15.475200
MEAN_MOTION    = 15.68139607
ECCENTRICITY   = .0001469
INCLINATION    = 41.4734
RA_OF_ASC_NODE = 231.1730
ARG_OF_PERICENTER = 290.3140
MEAN_ANOMALY   = 69.7543

EPHEMERIS_TYPE = 0
CLASSIFICATION_TYPE = U
NORAD_CAT_ID   = 66515
ELEMENT_SET_NO = 999
REV_AT_EPOCH   = 1736
BSTAR          = .35896E-3
MEAN_MOTION_DOT = .41059E-3
MEAN_MOTION_DDOT = 0

