GSLV R/B                
1 54149U 22138AN  26063.30543674  .00005589  00000+0  48444-3 0  9991
2 54149  87.3887 168.1641 0022221 165.3258 194.8623 14.96730402183126
XRISM                   
1 57800U 23137A   26064.08395890  .00007086  00000+0  40306-3 0  9992
2 57800  31.0029 313.4527 0008123 351.8434   8.2072 15.11436955137093
ACS3                    
1 59588U 24077B   26064.10536933  .00021684  00000+0  17541-1 0  9992
2 59588  97.2105   6.2485 0056150  88.8212 271.9383 13.89355720 93561
SZ-21 MODULE            
1 66515U 25246C   26064.17031800  .00041059  00000+0  35896-3 0  9992
2 66515  41.4734 231.1730 0001469 290.3140  69.7543 15.68139607 17361
